[{"OBJECT_NAME":"STARLINK-35886","OBJECT_ID":"2025-280T","EPOCH":"2026-03-09T22:09:25.068384","MEAN_MOTION":14.98329417,"ECCENTRICITY":0.00026501,"INCLINATION":70.0028,"RA_OF_ASC_NODE":333.7521,"ARG_OF_PERICENTER":249.5828,"MEAN_ANOMALY":110.5047,"EPHEMERIS_TYPE":0,"CLASSIFICATION_TYPE":"U","NORAD_CAT_ID":66838,"ELEMENT_SET_NO":999,"REV_AT_EPOCH":1611,"BSTAR":0.00028740096,"MEAN_MOTION_DOT":3.338e-5,"MEAN_MOTION_DDOT":0},{"OBJECT_NAME":"CZ-6A DEB","OBJECT_ID":"2022-151DD","EPOCH":"2026-03-09T17:22:01.111008","MEAN_MOTION":14.86690016,"ECCENTRICITY":0.00876761,"INCLINATION":98.4579,"RA_OF_ASC_NODE":137.3593,"ARG_OF_PERICENTER":94.708,"MEAN_ANOMALY":266.4154,"EPHEMERIS_TYPE":0,"CLASSIFICATION_TYPE":"U","NORAD_CAT_ID":54358,"ELEMENT_SET_NO":999,"REV_AT_EPOCH":17717,"BSTAR":0.0022043381,"MEAN_MOTION_DOT":0.00021004,"MEAN_MOTION_DDOT":0}]
